[{"OBJECT_NAME":"YAOGAN-39 03B","OBJECT_ID":"2023-152C","EPOCH":"2026-03-09T19:01:55.564608","MEAN_MOTION":15.17016078,"ECCENTRICITY":0.00191509,"INCLINATION":34.9895,"RA_OF_ASC_NODE":196.0494,"ARG_OF_PERICENTER":57.0378,"MEAN_ANOMALY":303.2174,"EPHEMERIS_TYPE":0,"CLASSIFICATION_TYPE":"U","NORAD_CAT_ID":57988,"ELEMENT_SET_NO":999,"REV_AT_EPOCH":13508,"BSTAR":0.00044094259,"MEAN_MOTION_DOT":8.936e-5,"MEAN_MOTION_DDOT":0},{"OBJECT_NAME":"TITAN 3C TRANSTAGE DEB","OBJECT_ID":"1965-082GW","EPOCH":"2026-03-09T12:42:20.172960","MEAN_MOTION":15.14963153,"ECCENTRICITY":0.00030531,"INCLINATION":31.8551,"RA_OF_ASC_NODE":209.3641,"ARG_OF_PERICENTER":343.4922,"MEAN_ANOMALY":16.5634,"EPHEMERIS_TYPE":0,"CLASSIFICATION_TYPE":"U","NORAD_CAT_ID":1961,"ELEMENT_SET_NO":999,"REV_AT_EPOCH":22902,"BSTAR":0.00048671967,"MEAN_MOTION_DOT":9.381e-5,"MEAN_MOTION_DDOT":0}]
